[
    {
        "Altitude(m)": 610399.5448564005,
        "Argument of Periapsis(deg)": 0.0,
        "Eccentricity": 0.0,
        "Inclination(deg)": 60.0,
        "Latitude(deg)": 52.111379135024244,
        "Longitude(deg)": 177.58442523480636,
        "Mean Anomaly(deg)": 65.45449999999998,
        "RAAN(deg)": 229.99999999999997,
        "Satellite Name": "Test1 1016",
        "Satellite Number": 1016,
        "Semi-Major Axis(m)": 6980739.136638005,
        "Time(s)": 0
    },
    {
        "Altitude(m)": 610481.6954286705,
        "Argument of Periapsis(deg)": 0.00010418945913296404,
        "Eccentricity": 0.0,
        "Inclination(deg)": 60.0,
        "Latitude(deg)": 52.47098010712898,
        "Longitude(deg)": 178.36656378405186,
        "Mean Anomaly(deg)": 66.07460614546183,
        "RAAN(deg)": 229.99957995086024,
        "Satellite Name": "Test1 1016",
        "Satellite Number": 1016,
        "Semi-Major Axis(m)": 6980739.136638005,
        "Time(s)": 10
    },
    {
        "Altitude(m)": 610562.3848067587,
        "Argument of Periapsis(deg)": 0.0002083789182659281,
        "Eccentricity": 0.0,
        "Inclination(deg)": 60.0,
        "Latitude(deg)": 52.8247336460433,
        "Longitude(deg)": 179.16211535109096,
        "Mean Anomaly(deg)": 66.69471229092363,
        "RAAN(deg)": 229.99915990172047,
        "Satellite Name": "Test1 1016",
        "Satellite Number": 1016,
        "Semi-Major Axis(m)": 6980739.136638005,
        "Time(s)": 20
    },
    {
        "Altitude(m)": 610641.5655249616,
        "Argument of Periapsis(deg)": 0.00031256837739889213,
        "Eccentricity": 0.0,
        "Inclination(deg)": 60.0,
        "Latitude(deg)": 53.17247022431087,
        "Longitude(deg)": 179.97124444371082,
        "Mean Anomaly(deg)": 67.3148184363855,
        "RAAN(deg)": 229.99873985258077,
        "Satellite Name": "Test1 1016",
        "Satellite Number": 1016,
        "Semi-Major Axis(m)": 6980739.136638005,
        "Time(s)": 30
    },
    {
        "Altitude(m)": 610719.1910740433,
        "Argument of Periapsis(deg)": 0.0004167578365318562,
        "Eccentricity": 0.0,
        "Inclination(deg)": 60.0,
        "Latitude(deg)": 53.5140168385954,
        "Longitude(deg)": -179.2058960430633,
        "Mean Anomaly(deg)": 67.93492458184734,
        "RAAN(deg)": 229.998319803441,
        "Satellite Name": "Test1 1016",
        "Satellite Number": 1016,
        "Semi-Major Axis(m)": 6980739.136638005,
        "Time(s)": 40
    },
    {
        "Altitude(m)": 610795.2159235433,
        "Argument of Periapsis(deg)": 0.0005209472956648203,
        "Eccentricity": 0.0,
        "Inclination(deg)": 60.0,
        "Latitude(deg)": 53.84919713165193,
        "Longitude(deg)": -178.36916724116466,
        "Mean Anomaly(deg)": 68.55503072730914,
        "RAAN(deg)": 229.99789975430127,
        "Satellite Name": "Test1 1016",
        "Satellite Number": 1016,
        "Semi-Major Axis(m)": 6980739.136638005,
        "Time(s)": 50
    },
    {
        "Altitude(m)": 610869.5955436225,
        "Argument of Periapsis(deg)": 0.0006251367547977843,
        "Eccentricity": 0.0,
        "Inclination(deg)": 60.0,
        "Latitude(deg)": 54.17783153862062,
        "Longitude(deg)": -177.5184452764518,
        "Mean Anomaly(deg)": 69.17513687277095,
        "RAAN(deg)": 229.9974797051615,
        "Satellite Name": "Test1 1016",
        "Satellite Number": 1016,
        "Semi-Major Axis(m)": 6980739.136638005,
        "Time(s)": 60
    },
    {
        "Altitude(m)": 610942.2864263846,
        "Argument of Periapsis(deg)": 0.0007293262139307483,
        "Eccentricity": 0.0,
        "Inclination(deg)": 60.0,
        "Latitude(deg)": 54.49973745930929,
        "Longitude(deg)": -176.6536222970123,
        "Mean Anomaly(deg)": 69.79524301823281,
        "RAAN(deg)": 229.9970596560218,
        "Satellite Name": "Test1 1016",
        "Satellite Number": 1016,
        "Semi-Major Axis(m)": 6980739.136638005,
        "Time(s)": 70
    },
    {
        "Altitude(m)": 611013.2461066972,
        "Argument of Periapsis(deg)": 0.0008335156730637124,
        "Eccentricity": 0.0,
        "Inclination(deg)": 60.0,
        "Latitude(deg)": 54.81472945809291,
        "Longitude(deg)": -175.77460907006238,
        "Mean Anomaly(deg)": 70.41534916369464,
        "RAAN(deg)": 229.99663960688204,
        "Satellite Name": "Test1 1016",
        "Satellite Number": 1016,
        "Semi-Major Axis(m)": 6980739.136638005,
        "Time(s)": 80
    },
    {
        "Altitude(m)": 611082.4331824948,
        "Argument of Periapsis(deg)": 0.0009377051321966765,
        "Eccentricity": 0.0,
        "Inclination(deg)": 60.0,
        "Latitude(deg)": 55.12261949298261,
        "Longitude(deg)": -174.88133611464718,
        "Mean Anomaly(deg)": 71.03545530915646,
        "RAAN(deg)": 229.9962195577423,
        "Satellite Name": "Test1 1016",
        "Satellite Number": 1016,
        "Semi-Major Axis(m)": 6980739.136638005,
        "Time(s)": 90
    },
    {
        "Altitude(m)": 611149.8073345573,
        "Argument of Periapsis(deg)": 0.0010418945913296407,
        "Eccentricity": 0.0,
        "Inclination(deg)": 60.0,
        "Latitude(deg)": 55.42321717532768,
        "Longitude(deg)": -173.97375487442727,
        "Mean Anomaly(deg)": 71.65556145461831,
        "RAAN(deg)": 229.99579950860254,
        "Satellite Name": "Test1 1016",
        "Satellite Number": 1016,
        "Semi-Major Axis(m)": 6980739.136638005,
        "Time(s)": 100
    },
    {
        "Altitude(m)": 611215.3293457571,
        "Argument of Periapsis(deg)": 0.0011460840504626045,
        "Eccentricity": 0.0,
        "Inclination(deg)": 60.0,
        "Latitude(deg)": 55.71633006148167,
        "Longitude(deg)": -173.05184043319937,
        "Mean Anomaly(deg)": 72.27566760008011,
        "RAAN(deg)": 229.99537945946284,
        "Satellite Name": "Test1 1016",
        "Satellite Number": 1016,
        "Semi-Major Axis(m)": 6980739.136638005,
        "Time(s)": 110
    },
    {
        "Altitude(m)": 611278.9611197602,
        "Argument of Periapsis(deg)": 0.0012502735095955685,
        "Eccentricity": 0.0,
        "Inclination(deg)": 60.0,
        "Latitude(deg)": 56.00176397758536,
        "Longitude(deg)": -172.1155927354549,
        "Mean Anomaly(deg)": 72.89577374554196,
        "RAAN(deg)": 229.99495941032308,
        "Satellite Name": "Test1 1016",
        "Satellite Number": 1016,
        "Semi-Major Axis(m)": 6980739.136638005,
        "Time(s)": 120
    },
    {
        "Altitude(m)": 611340.665699171,
        "Argument of Periapsis(deg)": 0.0013544629687285324,
        "Eccentricity": 0.0,
        "Inclination(deg)": 60.0,
        "Latitude(deg)": 56.279323378417104,
        "Longitude(deg)": -171.16503781112988,
        "Mean Anomaly(deg)": 73.51587989100382,
        "RAAN(deg)": 229.99453936118334,
        "Satellite Name": "Test1 1016",
        "Satellite Number": 1016,
        "Semi-Major Axis(m)": 6980739.136638005,
        "Time(s)": 130
    },
    {
        "Altitude(m)": 611400.4072831512,
        "Argument of Periapsis(deg)": 0.0014586524278614966,
        "Eccentricity": 0.0,
        "Inclination(deg)": 60.0,
        "Latitude(deg)": 56.54881174100675,
        "Longitude(deg)": -170.20023050189403,
        "Mean Anomaly(deg)": 74.13598603646562,
        "RAAN(deg)": 229.99411931204358,
        "Satellite Name": "Test1 1016",
        "Satellite Number": 1016,
        "Semi-Major Axis(m)": 6980739.136638005,
        "Time(s)": 140
    },
    {
        "Altitude(m)": 611458.1512444275,
        "Argument of Periapsis(deg)": 0.0015628418869944607,
        "Eccentricity": 0.0,
        "Inclination(deg)": 60.0,
        "Latitude(deg)": 56.8100319934036,
        "Longitude(deg)": -169.22125564591698,
        "Mean Anomaly(deg)": 74.75609218192747,
        "RAAN(deg)": 229.99369926290387,
        "Satellite Name": "Test1 1016",
        "Satellite Number": 1016,
        "Semi-Major Axis(m)": 6980739.136638005,
        "Time(s)": 150
    },
    {
        "Altitude(m)": 611513.8641457699,
        "Argument of Periapsis(deg)": 0.0016670313461274247,
        "Eccentricity": 0.0,
        "Inclination(deg)": 60.0,
        "Latitude(deg)": 57.06278697865106,
        "Longitude(deg)": -168.22822921493002,
        "Mean Anomaly(deg)": 75.37619832738928,
        "RAAN(deg)": 229.99327921376414,
        "Satellite Name": "Test1 1016",
        "Satellite Number": 1016,
        "Semi-Major Axis(m)": 6980739.136638005,
        "Time(s)": 160
    },
    {
        "Altitude(m)": 611567.513755874,
        "Argument of Periapsis(deg)": 0.0017712208052603888,
        "Eccentricity": 0.0,
        "Inclination(deg)": 60.0,
        "Latitude(deg)": 57.306879953632844,
        "Longitude(deg)": -167.2213008957584,
        "Mean Anomaly(deg)": 75.99630447285112,
        "RAAN(deg)": 229.99285916462438,
        "Satellite Name": "Test1 1016",
        "Satellite Number": 1016,
        "Semi-Major Axis(m)": 6980739.136638005,
        "Time(s)": 170
    },
    {
        "Altitude(m)": 611619.0690646677,
        "Argument of Periapsis(deg)": 0.001875410264393353,
        "Eccentricity": 0.0,
        "Inclination(deg)": 60.0,
        "Latitude(deg)": 57.5421151220107,
        "Longitude(deg)": -166.20065506840518,
        "Mean Anomaly(deg)": 76.61641061831293,
        "RAAN(deg)": 229.99243911548461,
        "Satellite Name": "Test1 1016",
        "Satellite Number": 1016,
        "Semi-Major Axis(m)": 6980739.136638005,
        "Time(s)": 180
    },
    {
        "Altitude(m)": 611668.5002980063,
        "Argument of Periapsis(deg)": 0.0019795997235263173,
        "Eccentricity": 0.0,
        "Inclination(deg)": 60.0,
        "Latitude(deg)": 57.768298200007926,
        "Longitude(deg)": -165.16651167010764,
        "Mean Anomaly(deg)": 77.23651676377479,
        "RAAN(deg)": 229.9920190663449,
        "Satellite Name": "Test1 1016",
        "Satellite Number": 1016,
        "Semi-Major Axis(m)": 6980739.136638005,
        "Time(s)": 190
    }
]